STARLINK-30232          
1 57303U 23096P   26066.40287806  .13401058  92553-5  23127-2 0  9991
2 57303  42.9626 149.1311 0011530  36.9585 323.2097 16.31722938148130
QIANKUN-1               
1 57422U 23103B   26066.09004068 -.00000717  16817-5 -20836-6 0  9996
2 57422  96.1945 117.7831 0035440 171.2462 188.9450 16.07904604150898
OBJECT B                
1 57425U 23104B   26066.22629237  .00377585  58622-4  96690-3 0  9991
2 57425  97.2688 154.8435 0003517 313.1077  46.9905 15.95292492147680
INTUITION-1             
1 58565U 23174CW  26066.27033179  .00552463  12448-3  15610-2 0  9990
2 58565  97.3737 162.4639 0003528 240.5488 119.5435 15.93437687130495
STARLINK-31145          
1 58768U 24011D   26066.25001157  .00610948  16508-3  15522-2 0  9991
2 58768  53.1222  14.6898 0011919 100.4008 261.7373 15.94775238  5972
SENTRY                  
1 59140U 24043AU  26065.93928373  .00381404  57742-4  11436-2 0  9991
2 59140  97.5288 219.9826 0004618 247.0039 113.0748 15.92278298112620
OBJECT B                
1 59678U 24085B   26066.30708633  .00625892  16959-3  14629-2 0  9993
2 59678  97.3360 158.5052 0010427 296.9257  63.0953 15.96906213103030
OBJECT D                
1 59813U 24095D   26066.31723560  .00776818  26217-3  20196-2 0  9991
2 59813  97.5286 170.2897 0005628 263.1039  96.9595 15.95026912100514
RUZAEVKA 390 (RS44S)    
1 61766U 24199AH  26066.23909775  .01903042  32533-2  18933-2 0  9996
2 61766  97.2780 308.4598 0002797 174.2056 185.9262 16.12074372119139
BANDWAGON-2 OBJECT X    
1 62398U 24247X   26066.02613467  .00985197  44876-3  23264-2 0  9996
2 62398  44.9847  68.6418 0012219  97.4102 262.8196 15.95935511 68076
SZ-19 DEB               
1 63801U 24194E   26065.99331413  .00835167  77738-5  47180-3 0  9990
2 63801  41.4583 178.3648 0011254  26.2032 333.9395 16.18078834 48788
COSMOS 2591             
1 65267U 25182A   26065.67972768  .00081650  43963-5  19747-3 0  9996
2 65267  96.5935 358.9798 0008231 168.3006 191.8465 15.96391647 31348
COSMOS 2592             
1 65268U 25182B   26065.94614520  .00004153  18599-5  11358-4 0  9997
2 65268  96.5888 359.1985 0006567 170.8591 189.2809 15.96450534 31382
COSMOS 2593             
1 65269U 25182C   26064.58275646  .00023585  20678-5  58016-4 0  9992
2 65269  96.5882 357.8369 0007309 166.2302 193.9177 15.96412483 31169
COSMOS 2594             
1 65270U 25182D   26065.16257574  .00107567  62806-5  25822-3 0  9999
2 65270  96.5909 358.3740 0007121 166.0438 194.1039 15.96514018 31279
ISS OBJECT XK           
1 65731U 98067XK  26066.22011182  .02017036  42574-2  15285-2 0  9995
2 65731  51.6135  59.2178 0003768 103.9528 256.1908 16.15536923 26504
