[{"OBJECT_NAME":"STARLINK-30232","OBJECT_ID":"2023-096P","EPOCH":"2026-03-07T09:40:08.664384","MEAN_MOTION":16.31722938,"ECCENTRICITY":0.001153,"INCLINATION":42.9626,"RA_OF_ASC_NODE":149.1311,"ARG_OF_PERICENTER":36.9585,"MEAN_ANOMALY":323.2097,"EPHEMERIS_TYPE":0,"CLASSIFICATION_TYPE":"U","NORAD_CAT_ID":57303,"ELEMENT_SET_NO":999,"REV_AT_EPOCH":14813,"BSTAR":0.0023127,"MEAN_MOTION_DOT":0.13401058,"MEAN_MOTION_DDOT":9.2553e-6},{"OBJECT_NAME":"QIANKUN-1","OBJECT_ID":"2023-103B","EPOCH":"2026-03-07T02:09:39.514752","MEAN_MOTION":16.07904604,"ECCENTRICITY":0.00354408,"INCLINATION":96.1945,"RA_OF_ASC_NODE":117.7831,"ARG_OF_PERICENTER":171.2462,"MEAN_ANOMALY":188.945,"EPHEMERIS_TYPE":0,"CLASSIFICATION_TYPE":"U","NORAD_CAT_ID":57422,"ELEMENT_SET_NO":999,"REV_AT_EPOCH":15089,"BSTAR":-2.08356e-7,"MEAN_MOTION_DOT":-7.17e-6,"MEAN_MOTION_DDOT":1.68165e-6},{"OBJECT_NAME":"OBJECT B","OBJECT_ID":"2023-104B","EPOCH":"2026-03-07T05:25:51.660768","MEAN_MOTION":15.95292492,"ECCENTRICITY":0.00035171,"INCLINATION":97.2688,"RA_OF_ASC_NODE":154.8435,"ARG_OF_PERICENTER":313.1077,"MEAN_ANOMALY":46.9905,"EPHEMERIS_TYPE":0,"CLASSIFICATION_TYPE":"U","NORAD_CAT_ID":57425,"ELEMENT_SET_NO":999,"REV_AT_EPOCH":14768,"BSTAR":0.00096689542,"MEAN_MOTION_DOT":0.00377585,"MEAN_MOTION_DDOT":5.8621582e-5},{"OBJECT_NAME":"INTUITION-1","OBJECT_ID":"2023-174CW","EPOCH":"2026-03-07T06:29:16.666656","MEAN_MOTION":15.93437687,"ECCENTRICITY":0.00035289,"INCLINATION":97.3737,"RA_OF_ASC_NODE":162.4639,"ARG_OF_PERICENTER":240.5488,"MEAN_ANOMALY":119.5435,"EPHEMERIS_TYPE":0,"CLASSIFICATION_TYPE":"U","NORAD_CAT_ID":58565,"ELEMENT_SET_NO":999,"REV_AT_EPOCH":13049,"BSTAR":0.0015610174,"MEAN_MOTION_DOT":0.00552463,"MEAN_MOTION_DDOT":0.0001244788},{"OBJECT_NAME":"STARLINK-31145","OBJECT_ID":"2024-011D","EPOCH":"2026-03-07T06:00:00.999648","MEAN_MOTION":15.94775238,"ECCENTRICITY":0.00119196,"INCLINATION":53.1222,"RA_OF_ASC_NODE":14.6898,"ARG_OF_PERICENTER":100.4008,"MEAN_ANOMALY":261.7373,"EPHEMERIS_TYPE":0,"CLASSIFICATION_TYPE":"U","NORAD_CAT_ID":58768,"ELEMENT_SET_NO":999,"REV_AT_EPOCH":597,"BSTAR":0.0015521775,"MEAN_MOTION_DOT":0.00610948,"MEAN_MOTION_DDOT":0.00016507829},{"OBJECT_NAME":"SENTRY","OBJECT_ID":"2024-043AU","EPOCH":"2026-03-06T22:32:34.114272","MEAN_MOTION":15.92278298,"ECCENTRICITY":0.00046187,"INCLINATION":97.5288,"RA_OF_ASC_NODE":219.9826,"ARG_OF_PERICENTER":247.0039,"MEAN_ANOMALY":113.0748,"EPHEMERIS_TYPE":0,"CLASSIFICATION_TYPE":"U","NORAD_CAT_ID":59140,"ELEMENT_SET_NO":999,"REV_AT_EPOCH":11262,"BSTAR":0.0011436485,"MEAN_MOTION_DOT":0.00381404,"MEAN_MOTION_DDOT":5.7741743e-5},{"OBJECT_NAME":"OBJECT B","OBJECT_ID":"2024-085B","EPOCH":"2026-03-07T07:22:12.258912","MEAN_MOTION":15.96906213,"ECCENTRICITY":0.00104272,"INCLINATION":97.336,"RA_OF_ASC_NODE":158.5052,"ARG_OF_PERICENTER":296.9257,"MEAN_ANOMALY":63.0953,"EPHEMERIS_TYPE":0,"CLASSIFICATION_TYPE":"U","NORAD_CAT_ID":59678,"ELEMENT_SET_NO":999,"REV_AT_EPOCH":10303,"BSTAR":0.0014629104,"MEAN_MOTION_DOT":0.00625892,"MEAN_MOTION_DDOT":0.00016958629},{"OBJECT_NAME":"OBJECT D","OBJECT_ID":"2024-095D","EPOCH":"2026-03-07T07:36:49.155840","MEAN_MOTION":15.95026912,"ECCENTRICITY":0.00056284,"INCLINATION":97.5286,"RA_OF_ASC_NODE":170.2897,"ARG_OF_PERICENTER":263.1039,"MEAN_ANOMALY":96.9595,"EPHEMERIS_TYPE":0,"CLASSIFICATION_TYPE":"U","NORAD_CAT_ID":59813,"ELEMENT_SET_NO":999,"REV_AT_EPOCH":10051,"BSTAR":0.0020195975,"MEAN_MOTION_DOT":0.00776818,"MEAN_MOTION_DDOT":0.00026217132},{"OBJECT_NAME":"RUZAEVKA 390 (RS44S)","OBJECT_ID":"2024-199AH","EPOCH":"2026-03-07T05:44:18.045600","MEAN_MOTION":16.12074372,"ECCENTRICITY":0.00027973,"INCLINATION":97.278,"RA_OF_ASC_NODE":308.4598,"ARG_OF_PERICENTER":174.2056,"MEAN_ANOMALY":185.9262,"EPHEMERIS_TYPE":0,"CLASSIFICATION_TYPE":"U","NORAD_CAT_ID":61766,"ELEMENT_SET_NO":999,"REV_AT_EPOCH":11913,"BSTAR":0.0018933306,"MEAN_MOTION_DOT":0.01903042,"MEAN_MOTION_DDOT":0.0032533445},{"OBJECT_NAME":"BANDWAGON-2 OBJECT X","OBJECT_ID":"2024-247X","EPOCH":"2026-03-07T00:37:38.035488","MEAN_MOTION":15.95935511,"ECCENTRICITY":0.00122192,"INCLINATION":44.9847,"RA_OF_ASC_NODE":68.6418,"ARG_OF_PERICENTER":97.4102,"MEAN_ANOMALY":262.8196,"EPHEMERIS_TYPE":0,"CLASSIFICATION_TYPE":"U","NORAD_CAT_ID":62398,"ELEMENT_SET_NO":999,"REV_AT_EPOCH":6807,"BSTAR":0.0023264204,"MEAN_MOTION_DOT":0.00985197,"MEAN_MOTION_DDOT":0.00044876241},{"OBJECT_NAME":"SZ-19 DEB","OBJECT_ID":"2024-194E","EPOCH":"2026-03-06T23:50:22.340832","MEAN_MOTION":16.18078834,"ECCENTRICITY":0.00112542,"INCLINATION":41.4583,"RA_OF_ASC_NODE":178.3648,"ARG_OF_PERICENTER":26.2032,"MEAN_ANOMALY":333.9395,"EPHEMERIS_TYPE":0,"CLASSIFICATION_TYPE":"U","NORAD_CAT_ID":63801,"ELEMENT_SET_NO":999,"REV_AT_EPOCH":4878,"BSTAR":0.00047179521,"MEAN_MOTION_DOT":0.00835167,"MEAN_MOTION_DDOT":7.773764e-6},{"OBJECT_NAME":"COSMOS 2591","OBJECT_ID":"2025-182A","EPOCH":"2026-03-06T16:18:48.471552","MEAN_MOTION":15.96391647,"ECCENTRICITY":0.00082315,"INCLINATION":96.5935,"RA_OF_ASC_NODE":358.9798,"ARG_OF_PERICENTER":168.3006,"MEAN_ANOMALY":191.8465,"EPHEMERIS_TYPE":0,"CLASSIFICATION_TYPE":"U","NORAD_CAT_ID":65267,"ELEMENT_SET_NO":999,"REV_AT_EPOCH":3134,"BSTAR":0.00019747007,"MEAN_MOTION_DOT":0.0008165,"MEAN_MOTION_DDOT":4.396268e-6},{"OBJECT_NAME":"COSMOS 2592","OBJECT_ID":"2025-182B","EPOCH":"2026-03-06T22:42:26.945280","MEAN_MOTION":15.96450534,"ECCENTRICITY":0.00065673,"INCLINATION":96.5888,"RA_OF_ASC_NODE":359.1985,"ARG_OF_PERICENTER":170.8591,"MEAN_ANOMALY":189.2809,"EPHEMERIS_TYPE":0,"CLASSIFICATION_TYPE":"U","NORAD_CAT_ID":65268,"ELEMENT_SET_NO":999,"REV_AT_EPOCH":3138,"BSTAR":1.1357609e-5,"MEAN_MOTION_DOT":4.153e-5,"MEAN_MOTION_DDOT":1.859884e-6},{"OBJECT_NAME":"COSMOS 2593","OBJECT_ID":"2025-182C","EPOCH":"2026-03-05T13:59:10.158144","MEAN_MOTION":15.96412483,"ECCENTRICITY":0.0007309,"INCLINATION":96.5882,"RA_OF_ASC_NODE":357.8369,"ARG_OF_PERICENTER":166.2302,"MEAN_ANOMALY":193.9177,"EPHEMERIS_TYPE":0,"CLASSIFICATION_TYPE":"U","NORAD_CAT_ID":65269,"ELEMENT_SET_NO":999,"REV_AT_EPOCH":3116,"BSTAR":5.8016e-5,"MEAN_MOTION_DOT":0.00023585,"MEAN_MOTION_DDOT":2.0678e-6},{"OBJECT_NAME":"COSMOS 2594","OBJECT_ID":"2025-182D","EPOCH":"2026-03-06T03:54:06.543936","MEAN_MOTION":15.96514018,"ECCENTRICITY":0.0007121,"INCLINATION":96.5909,"RA_OF_ASC_NODE":358.374,"ARG_OF_PERICENTER":166.0438,"MEAN_ANOMALY":194.1039,"EPHEMERIS_TYPE":0,"CLASSIFICATION_TYPE":"U","NORAD_CAT_ID":65270,"ELEMENT_SET_NO":999,"REV_AT_EPOCH":3127,"BSTAR":0.00025822261,"MEAN_MOTION_DOT":0.00107567,"MEAN_MOTION_DDOT":6.280607e-6},{"OBJECT_NAME":"ISS OBJECT XK","OBJECT_ID":"1998-067XK","EPOCH":"2026-03-07T05:16:57.661248","MEAN_MOTION":16.15536923,"ECCENTRICITY":0.00037688,"INCLINATION":51.6135,"RA_OF_ASC_NODE":59.2178,"ARG_OF_PERICENTER":103.9528,"MEAN_ANOMALY":256.1908,"EPHEMERIS_TYPE":0,"CLASSIFICATION_TYPE":"U","NORAD_CAT_ID":65731,"ELEMENT_SET_NO":999,"REV_AT_EPOCH":2650,"BSTAR":0.0015284792,"MEAN_MOTION_DOT":0.02017036,"MEAN_MOTION_DDOT":0.0042573958}]
